IRIDIUM 130             
1 43073U 17083D   25086.52521886  .00000177  00000+0  56212-4 0  9998
2 43073  86.4009 148.9712 0001915  95.2966 264.8449 14.34214028380097
IRIDIUM 151             
1 43074U 17083E   25086.49985378  .00000764  00000+0  26555-3 0  9993
2 43074  86.4000 148.7981 0002166  99.8625 260.2815 14.34222878380118
IRIDIUM 134             
1 43075U 17083F   25086.67744341  .00000357  00000+0  12044-3 0  9993
2 43075  86.4001 148.7260 0001966  92.4545 267.6876 14.34216676380103
IRIDIUM 137             
1 43076U 17083G   25086.48082746  .00000226  00000+0  73806-4 0  9996
2 43076  86.4003 148.8911 0002112 111.2331 248.9090 14.34215190380141
IRIDIUM 141             
1 43077U 17083H   25086.68378934  .00000473  00000+0  16173-3 0  9993
2 43077  86.3994 148.6628 0002540  90.0996 270.0491 14.34218009380175
IRIDIUM 153             
1 43078U 17083J   25086.77550544  .00000369  00000+0  12454-3 0  9995
2 43078  86.3931 117.1191 0002663  85.2825 274.8674 14.34215966381294
IRIDIUM 131             
1 43079U 17083K   25085.62456834  .00000371  00000+0  12531-3 0  9995
2 43079  86.4006 149.2610 0002507  97.9581 262.1899 14.34221384379957
